SATELIOT_2              
1 60534U 24149BU  26169.76494525  .00001872  00000+0  17039-3 0  9994
2 60534  97.6833 244.6921 0002149  92.2901 267.8566 14.96368999100200
NIGHTJAR                
1 60535U 24149BV  26169.72745852  .00001858  00000+0  15807-3 0  9998
2 60535  97.6838 246.4134 0001062  80.2225 279.9117 14.99023095143101
LEMUR-2-MARHISYAM       
1 60536U 24149BW  26169.84974916  .00008852  00000+0  52944-3 0  9991
2 60536  97.6878 252.7624 0003239 115.4862 244.6702 15.11287801100739
SATELIOT_4              
1 60537U 24149BX  26169.77544419  .00001099  00000+0  10132-3 0  9994
2 60537  97.6742 244.2292 0003126  55.7489 304.4029 14.96675362100218
PICO-02A021             
1 60538U 24149BY  26169.16489146  .00004779  00000+0  35712-3 0  9992
2 60538  97.6753 247.9873 0004858  25.2654 334.8808 15.03262350 99885
ICEYE-X43               
1 60539U 24149BZ  26169.76352332  .00003129  00000+0  25874-3 0  9991
2 60539  97.6789 246.7062 0008278  80.2691 279.9467 14.99626241100356
HAWK-10A                
1 60540U 24149CA  26169.77433919  .00001271  00000+0  11683-3 0  9994
2 60540  97.6899 245.6584 0004916  74.2548 285.9215 14.96522181100225
UMBRA-09                
1 60541U 24149CB  26169.78125047  .00010185  00000+0  50299-3 0  9996
2 60541  97.6975 257.0153 0000632 238.5968 121.5203 15.18076002100966
QPS-SAR-8 (AMATERU-IV)  
1 60542U 24149CC  26169.79026149  .00003299  00000+0  24224-3 0  9998
2 60542  97.6652 248.9271 0004613 105.1274 255.0462 15.04142981100517
ARCTIC WEATHER SATELLITE
1 60543U 24149CD  26169.76563348  .00000587  00000+0  66748-4 0  9998
2 60543  97.6804 240.1860 0003583  99.7538 260.4084 14.89784390 99538
CAPELLA-15 (ACADIA-5)   
1 60544U 24149CE  26169.73053988  .00002975  00000+0  29576-3 0  9990
2 60544  97.6768 242.5956 0004674  75.7937 284.3802 14.92413563100080
HAWK-10B                
1 60545U 24149CF  26169.77418811  .00001123  00000+0  10381-3 0  9993
2 60545  97.6820 245.0119 0006892  88.3539 271.8472 14.96521020100223
ICEYE-X39               
1 60546U 24149CG  26169.74478406  .00002531  00000+0  20877-3 0  9992
2 60546  97.6759 246.7472 0005452 114.9857 245.1933 14.99904033100357
UMBRA-10                
1 60547U 24149CH  26169.78080100  .00011557  00000+0  57009-3 0  9992
2 60547  97.6977 257.0413 0000426  83.1729 276.9552 15.18079809100974
ICEYE-X33               
1 60548U 24149CJ  26169.76919258  .00003736  00000+0  29832-3 0  9999
2 60548  97.7286 248.9010 0001908  91.1844 268.9598 15.00875914100449
ICEYE-X40               
1 60549U 24149CK  26169.77217483  .00001794  00000+0  15703-3 0  9996
2 60549  97.6821 246.2425 0006504  77.6027 282.5923 14.97948455100310
SATELIOT_1              
1 60550U 24149CL  26169.76322610  .00002299  00000+0  19918-3 0  9999
2 60550  97.6757 245.6347 0008408  75.9416 284.2741 14.98076317100300
BRO-14                  
1 60551U 24149CM  26169.73352751  .00000611  00000+0  59320-4 0  9994
2 60551  97.6872 245.4836 0008047  92.9701 267.2442 14.96177394100220
SATELIOT_3              
1 60552U 24149CN  26169.73900544  .00001571  00000+0  13772-3 0  9990
2 60552  97.6816 246.4042 0005913  82.8948 277.2946 14.98057772100318
BRO-15                  
1 60553U 24149CP  26169.44846721  .00001125  00000+0  10486-3 0  9999
2 60553  97.6805 244.8041 0009533  84.8682 275.3627 14.96169110100196
UM5-RIBAT               
1 60554U 24149CQ  26169.73869661  .00002288  00000+0  18349-3 0  9997
2 60554  97.6632 247.5184 0003398  59.1900 300.9658 15.01082629100425
UM5-EOSAT               
1 60555U 24149CR  26169.77125650  .00003633  00000+0  28500-3 0  9990
2 60555  97.6714 248.4886 0008847 109.4335 250.7846 15.01542487100458
KANYINI                 
1 60556U 24149CS  26169.75612485  .00029238  00000+0  47160-3 0  9998
2 60556  97.3723 256.6849 0002317 205.6176 154.4963 15.52871203102756
FLOCK 4BE-5             
1 60559U 24149CV  26169.78126412  .00010739  00000+0  26826-3 0  9996
2 60559  97.3842 253.7965 0001858 283.2461  76.8578 15.40334455102520
FLOCK 4BE-3             
1 60561U 24149CX  26169.76907884  .00009578  00000+0  22966-3 0  9997
2 60561  97.3697 253.6974 0002812 269.8407  90.2518 15.41607096102586
HYPERFIELD-1A           
1 60562U 24149CY  26169.78405288  .00004807  00000+0  16287-3 0  9990
2 60562  97.3797 249.9384 0003731 315.3182  44.7758 15.31039171102288
FLOCK 4BE-19            
1 60563U 24149CZ  26169.74660986  .00015739  00000+0  34137-3 0  9995
2 60563  97.3746 255.2156 0003443 272.2020  87.8834 15.44480664102668
PTD-4 (LISA-T)          
1 60565U 24149DB  26169.78292089  .00015581  00000+0  68279-3 0  9995
2 60565  97.6967 258.7057 0002848  58.5218 301.6295 15.22093229101062
ION SCV-012             
1 60573U 24149DK  26169.77551424  .00000583  00000+0  58597-4 0  9993
2 60573  97.6782 243.7627 0004771  81.7437 278.4325 14.94940680100155
GNOMES-5                
1 60574U 24149DL  26169.76520322  .00003755  00000+0  29697-3 0  9998
2 60574  97.7093 247.8362 0008321 115.2229 244.9858 15.01217200100399
