OBJECT_NAME,OBJECT_ID,EPOCH,MEAN_MOTION,ECCENTRICITY,INCLINATION,RA_OF_ASC_NODE,ARG_OF_PERICENTER,MEAN_ANOMALY,EPHEMERIS_TYPE,CLASSIFICATION_TYPE,NORAD_CAT_ID,ELEMENT_SET_NO,REV_AT_EPOCH,BSTAR,MEAN_MOTION_DOT,MEAN_MOTION_DDOT
SATELIOT_2,2024-149BU,2026-06-18T18:21:31.269600,14.96368999,.0002149,97.6833,244.6921,92.2901,267.8566,0,U,60534,999,10020,.17039E-3,.1872E-4,0
NIGHTJAR,2024-149BV,2026-06-18T17:27:32.416128,14.99023095,.0001062,97.6838,246.4134,80.2225,279.9117,0,U,60535,999,14310,.15807E-3,.1858E-4,0
LEMUR-2-MARHISYAM,2024-149BW,2026-06-18T20:23:38.327424,15.11287801,.0003239,97.6878,252.7624,115.4862,244.6702,0,U,60536,999,10073,.52944E-3,.8852E-4,0
SATELIOT_4,2024-149BX,2026-06-18T18:36:38.378016,14.96675362,.0003126,97.6742,244.2292,55.7489,304.4029,0,U,60537,999,10021,.10132E-3,.1099E-4,0
PICO-02A021,2024-149BY,2026-06-18T03:57:26.622144,15.03262350,.00048586,97.6753,247.9873,25.2654,334.8808,0,U,60538,999,9988,.35711518E-3,.4779E-4,0
ICEYE-X43,2024-149BZ,2026-06-18T18:19:28.414848,14.99626241,.0008278,97.6789,246.7062,80.2691,279.9467,0,U,60539,999,10035,.25874E-3,.3129E-4,0
HAWK-10A,2024-149CA,2026-06-18T18:35:02.906016,14.96522181,.0004916,97.6899,245.6584,74.2548,285.9215,0,U,60540,999,10022,.11683E-3,.1271E-4,0
UMBRA-09,2024-149CB,2026-06-18T18:45:00.040608,15.18076002,.0000632,97.6975,257.0153,238.5968,121.5203,0,U,60541,999,10096,.50299E-3,.10185E-3,0
QPS-SAR-8 (AMATERU-IV),2024-149CC,2026-06-18T18:57:58.592736,15.04142981,.0004613,97.6652,248.9271,105.1274,255.0462,0,U,60542,999,10051,.24224E-3,.3299E-4,0
ARCTIC WEATHER SATELLITE,2024-149CD,2026-06-18T18:22:30.732672,14.89784390,.0003583,97.6804,240.1860,99.7538,260.4084,0,U,60543,999,9953,.66748E-4,.587E-5,0
CAPELLA-15 (ACADIA-5),2024-149CE,2026-06-18T17:31:58.645632,14.92413563,.0004674,97.6768,242.5956,75.7937,284.3802,0,U,60544,999,10008,.29576E-3,.2975E-4,0
HAWK-10B,2024-149CF,2026-06-18T18:34:49.852704,14.96521020,.0006892,97.6820,245.0119,88.3539,271.8472,0,U,60545,999,10022,.10381E-3,.1123E-4,0
ICEYE-X39,2024-149CG,2026-06-18T17:52:29.342784,14.99904033,.0005452,97.6759,246.7472,114.9857,245.1933,0,U,60546,999,10035,.20877E-3,.2531E-4,0
UMBRA-10,2024-149CH,2026-06-18T18:44:21.206400,15.18079809,.0000426,97.6977,257.0413,83.1729,276.9552,0,U,60547,999,10097,.57009E-3,.11557E-3,0
ICEYE-X33,2024-149CJ,2026-06-18T18:27:38.238912,15.00875914,.0001908,97.7286,248.9010,91.1844,268.9598,0,U,60548,999,10044,.29832E-3,.3736E-4,0
ICEYE-X40,2024-149CK,2026-06-18T18:31:55.905312,14.97948455,.0006504,97.6821,246.2425,77.6027,282.5923,0,U,60549,999,10031,.15703E-3,.1794E-4,0
SATELIOT_1,2024-149CL,2026-06-18T18:19:02.735040,14.98076317,.0008408,97.6757,245.6347,75.9416,284.2741,0,U,60550,999,10030,.19918E-3,.2299E-4,0
BRO-14,2024-149CM,2026-06-18T17:36:16.776864,14.96177394,.0008047,97.6872,245.4836,92.9701,267.2442,0,U,60551,999,10022,.5932E-4,.611E-5,0
SATELIOT_3,2024-149CN,2026-06-18T17:44:10.070016,14.98057772,.0005913,97.6816,246.4042,82.8948,277.2946,0,U,60552,999,10031,.13772E-3,.1571E-4,0
BRO-15,2024-149CP,2026-06-18T10:45:47.566944,14.96169110,.0009533,97.6805,244.8041,84.8682,275.3627,0,U,60553,999,10019,.10486E-3,.1125E-4,0
UM5-RIBAT,2024-149CQ,2026-06-18T17:43:43.387104,15.01082629,.0003398,97.6632,247.5184,59.1900,300.9658,0,U,60554,999,10042,.18349E-3,.2288E-4,0
UM5-EOSAT,2024-149CR,2026-06-18T18:30:36.561600,15.01542487,.0008847,97.6714,248.4886,109.4335,250.7846,0,U,60555,999,10045,.285E-3,.3633E-4,0
KANYINI,2024-149CS,2026-06-18T18:08:49.187040,15.52871203,.0002317,97.3723,256.6849,205.6176,154.4963,0,U,60556,999,10275,.4716E-3,.29238E-3,0
FLOCK 4BE-5,2024-149CV,2026-06-18T18:45:01.219968,15.40334455,.0001858,97.3842,253.7965,283.2461,76.8578,0,U,60559,999,10252,.26826E-3,.10739E-3,0
FLOCK 4BE-3,2024-149CX,2026-06-18T18:27:28.411776,15.41607096,.0002812,97.3697,253.6974,269.8407,90.2518,0,U,60561,999,10258,.22966E-3,.9578E-4,0
HYPERFIELD-1A,2024-149CY,2026-06-18T18:49:02.168832,15.31039171,.0003731,97.3797,249.9384,315.3182,44.7758,0,U,60562,999,10228,.16287E-3,.4807E-4,0
FLOCK 4BE-19,2024-149CZ,2026-06-18T17:55:07.091904,15.44480664,.0003443,97.3746,255.2156,272.2020,87.8834,0,U,60563,999,10266,.34137E-3,.15739E-3,0
PTD-4 (LISA-T),2024-149DB,2026-06-18T18:47:24.364896,15.22093229,.0002848,97.6967,258.7057,58.5218,301.6295,0,U,60565,999,10106,.68279E-3,.15581E-3,0
ION SCV-012,2024-149DK,2026-06-18T18:36:44.430336,14.94940680,.0004771,97.6782,243.7627,81.7437,278.4325,0,U,60573,999,10015,.58597E-4,.583E-5,0
GNOMES-5,2024-149DL,2026-06-18T18:21:53.558208,15.01217200,.0008321,97.7093,247.8362,115.2229,244.9858,0,U,60574,999,10039,.29697E-3,.3755E-4,0
